*******************************************************************************
 Revised: April 12, 2021             Mercury                            199 / 1

 PHYSICAL DATA (updated 2024-Mar-04):
  Vol. Mean Radius (km) =  2439.4+-0.1    Density (g cm^-3)     = 5.427
  Mass x10^23 (kg)      =     3.302       Volume (x10^10 km^3)  = 6.085  
  Sidereal rot. period  =    58.6463 d    Sid. rot. rate (rad/s)= 0.00000124001
  Mean solar day        =   175.9421 d    Core radius (km)      = ~1600 
  Geometric Albedo      =     0.106       Surface emissivity    = 0.77+-0.06
  GM (km^3/s^2)         = 22031.86855     Equatorial radius, Re = 2440.53 km
  GM 1-sigma (km^3/s^2) =                 Mass ratio (Sun/plnt) = 6023682
  Mom. of Inertia       =     0.33        Equ. gravity  m/s^2   = 3.701     
  Atmos. pressure (bar) = < 5x10^-15      Max. angular diam.    = 11.0"   
  Mean Temperature (K)  = 440             Visual mag. V(1,0)    = -0.42 
  Obliquity to orbit[1] =  2.11' +/- 0.1' Hill's sphere rad. Rp = 94.4 
  Sidereal orb. per.    =  0.2408467 y    Mean Orbit vel.  km/s = 47.362 
  Sidereal orb. per.    = 87.969257  d    Escape vel. km/s      =  4.435
                                 Perihelion  Aphelion    Mean
  Solar Constant (W/m^2)         14462       6278        9126
  Maximum Planetary IR (W/m^2)   12700       5500        8000
  Minimum Planetary IR (W/m^2)   6           6           6
*******************************************************************************


*******************************************************************************
Ephemeris / WWW_USER Wed May 21 10:39:00 2025 Pasadena, USA      / Horizons
*******************************************************************************
Target body name: Mercury (199)                   {source: DE441}
Center body name: Solar System Barycenter (0)     {source: DE441}
Center-site name: BODY CENTER
*******************************************************************************
Start time      : A.D. 1755-Jan-01 00:00:00.0000 TDB
Stop  time      : A.D. 1755-Jan-31 00:00:00.0000 TDB
Step-size       : 1440 minutes
*******************************************************************************
Center geodetic : 0.0, 0.0, 0.0                   {E-lon(deg),Lat(deg),Alt(km)}
Center cylindric: 0.0, 0.0, 0.0                   {E-lon(deg),Dxy(km),Dz(km)}
Center radii    : (undefined)
Output units    : KM-S
Calendar mode   : Mixed Julian/Gregorian
Output type     : GEOMETRIC cartesian states
Output format   : 3 (position, velocity, LT, range, range-rate)
Reference frame : Ecliptic of J2000.0
*******************************************************************************
JDTDB
   X     Y     Z
   VX    VY    VZ
   LT    RG    RR
*******************************************************************************
$$SOE
2362084.500000000 = A.D. 1755-Jan-25 00:00:00.0000 TDB 
 X =-5.092892374171303E+06 Y =-6.915616332642037E+07 Z =-5.118863073613863E+06
 VX= 3.879653119345728E+01 VY=-1.420916614479279E+00 VZ=-3.701742678023658E+00
 LT= 2.319341755862670E+02 RG= 6.953211659321058E+07 RR=-1.155907606882724E+00
2362085.500000000 = A.D. 1755-Jan-26 00:00:00.0000 TDB 
 X =-1.734151267850278E+06 Y =-6.917710924921402E+07 Z =-5.431029853548523E+06
 VX= 3.893316905838377E+01 VY= 9.386973596508565E-01 VZ=-3.522375351131562E+00
 LT= 2.315323099488588E+02 RG= 6.941164030598624E+07 RR=-1.632611592199606E+00
2362086.500000000 = A.D. 1755-Jan-27 00:00:00.0000 TDB 
 X = 1.631462445419161E+06 Y =-6.899353790395094E+07 Z =-5.727190805547502E+06
 VX= 3.895532475976952E+01 VY= 3.312839696099419E+00 VZ=-3.331245958499167E+00
 LT= 2.309933323719213E+02 RG= 6.925005889338924E+07 RR=-2.107315182908454E+00
2362087.500000000 = A.D. 1755-Jan-28 00:00:00.0000 TDB 
 X = 4.993976738505322E+06 Y =-6.860430973835149E+07 Z =-6.006331637078252E+06
 VX= 3.886107729534581E+01 VY= 5.698810679585257E+00 VZ=-3.128396641301561E+00
 LT= 2.303179073241701E+02 RG= 6.904757155812918E+07 RR=-2.579402362997815E+00
2362088.500000000 = A.D. 1755-Jan-29 00:00:00.0000 TDB 
 X = 8.343240202692773E+06 Y =-6.800852471300532E+07 Z =-6.267440966753874E+06
 VX= 3.864819428012689E+01 VY= 8.093757756878846E+00 VZ=-2.913853200328886E+00
 LT= 2.295068821271858E+02 RG= 6.880443232082529E+07 RR=-3.048218641693665E+00
2362089.500000000 = A.D. 1755-Jan-30 00:00:00.0000 TDB 
 X = 1.166889489201225E+07 Y =-6.720553762877592E+07 Z =-6.509509061895374E+06
 VX= 3.831412631061447E+01 VY= 1.049462579146799E+01 VZ=-2.687628622817511E+00
 LT= 2.285612994311868E+02 RG= 6.852095376014949E+07 RR=-3.513061328625875E+00
2362090.500000000 = A.D. 1755-Jan-31 00:00:00.0000 TDB 
 X = 1.496034873971368E+07 Y =-6.619497792396086E+07 Z =-6.731526900247518E+06
 VX= 3.785600277862885E+01 VY= 1.289810321347935E+01 VZ=-2.449727077243422E+00
 LT= 2.274824125833048E+02 RG= 6.819751162011907E+07 RR=-3.973169164997965E+00
